{
  "type": "FeatureCollection",
  "features": [
    {
      "type": "Feature",
      "properties": {
        "norad_id": 50032,
        "name": "COSMOS 1408 DEB",
        "group": "cosmos-1408-debris",
        "lat": -82.19217587511929,
        "lon": -14.184264827903942,
        "alt_km": 432.3567382922711,
        "timestamp": "2025-12-13T03:42:11.543434+00:00",
        "meta_object_name": "COSMOS 1408 DEB",
        "meta_object_id": "1982-092RU",
        "meta_epoch": "2025-12-12T06:19:48.735264",
        "meta_mean_motion": 15.45686747,
        "meta_eccentricity": 0.0015191,
        "meta_inclination": 82.5641,
        "meta_ra_of_asc_node": 58.9964,
        "meta_arg_of_pericenter": 210.2939,
        "meta_mean_anomaly": 149.7434,
        "meta_ephemeris_type": 0,
        "meta_classification_type": "U",
        "meta_norad_cat_id": 50032,
        "meta_element_set_no": 999,
        "meta_rev_at_epoch": 22596,
        "meta_bstar": 0.00015871762,
        "meta_mean_motion_dot": 7.73e-05,
        "meta_mean_motion_ddot": 0,
        "tle_line1": "1 50032U 82092RU  25346.26375851  .00007730  00000+0  15872-3 0  9990",
        "tle_line2": "2 50032  82.5641  58.9964 0015191 210.2939 149.7434 15.45686747225961"
      },
      "geometry": {
        "type": "Point",
        "coordinates": [
          -14.184264827903942,
          -82.19217587511929
        ]
      }
    },
    {
      "type": "Feature",
      "properties": {
        "norad_id": 50058,
        "name": "COSMOS 1408 DEB",
        "group": "cosmos-1408-debris",
        "lat": 37.963569987642295,
        "lon": -116.90425375157825,
        "alt_km": 364.28952860400386,
        "timestamp": "2025-12-13T03:42:11.543456+00:00",
        "meta_object_name": "COSMOS 1408 DEB",
        "meta_object_id": "1982-092SW",
        "meta_epoch": "2025-12-12T05:36:18.006336",
        "meta_mean_motion": 15.64054472,
        "meta_eccentricity": 0.00175789,
        "meta_inclination": 82.6128,
        "meta_ra_of_asc_node": 69.8697,
        "meta_arg_of_pericenter": 102.4674,
        "meta_mean_anomaly": 257.8553,
        "meta_ephemeris_type": 0,
        "meta_classification_type": "U",
        "meta_norad_cat_id": 50058,
        "meta_element_set_no": 999,
        "meta_rev_at_epoch": 22796,
        "meta_bstar": 0.00045865233,
        "meta_mean_motion_dot": 0.00043842,
        "meta_mean_motion_ddot": 0,
        "tle_line1": "1 50058U 82092SW  25346.23354174  .00043842  00000+0  45865-3 0  9999",
        "tle_line2": "2 50058  82.6128  69.8697 0017578 102.4674 257.8553 15.64054472227963"
      },
      "geometry": {
        "type": "Point",
        "coordinates": [
          -116.90425375157825,
          37.963569987642295
        ]
      }
    },
    {
      "type": "Feature",
      "properties": {
        "norad_id": 50404,
        "name": "COSMOS 1408 DEB",
        "group": "cosmos-1408-debris",
        "lat": 3.9813272461309315,
        "lon": 34.06275429266943,
        "alt_km": 416.6022690785712,
        "timestamp": "2025-12-13T03:42:11.543470+00:00",
        "meta_object_name": "COSMOS 1408 DEB",
        "meta_object_id": "1982-092ADS",
        "meta_epoch": "2025-12-12T01:32:19.955904",
        "meta_mean_motion": 15.1364179,
        "meta_eccentricity": 0.01720447,
        "meta_inclination": 82.2033,
        "meta_ra_of_asc_node": 215.7253,
        "meta_arg_of_pericenter": 201.2162,
        "meta_mean_anomaly": 158.1879,
        "meta_ephemeris_type": 0,
        "meta_classification_type": "U",
        "meta_norad_cat_id": 50404,
        "meta_element_set_no": 999,
        "meta_rev_at_epoch": 21183,
        "meta_bstar": 0.0035622376,
        "meta_mean_motion_dot": 0.00093542,
        "meta_mean_motion_ddot": 0,
        "tle_line1": "1 50404U 82092ADS 25346.06411986  .00093542  00000+0  35622-2 0  9991",
        "tle_line2": "2 50404  82.2033 215.7253 0172044 201.2162 158.1879 15.13641790211831"
      },
      "geometry": {
        "type": "Point",
        "coordinates": [
          34.06275429266943,
          3.9813272461309315
        ]
      }
    },
    {
      "type": "Feature",
      "properties": {
        "norad_id": 50621,
        "name": "COSMOS 1408 DEB",
        "group": "cosmos-1408-debris",
        "lat": 32.97413936796805,
        "lon": -111.10693770598998,
        "alt_km": 375.881484082508,
        "timestamp": "2025-12-13T03:42:11.543482+00:00",
        "meta_object_name": "COSMOS 1408 DEB",
        "meta_object_id": "1982-092ALR",
        "meta_epoch": "2025-12-12T07:01:11.212032",
        "meta_mean_motion": 15.56625201,
        "meta_eccentricity": 0.00288405,
        "meta_inclination": 82.571,
        "meta_ra_of_asc_node": 74.6463,
        "meta_arg_of_pericenter": 154.2231,
        "meta_mean_anomaly": 206.0469,
        "meta_ephemeris_type": 0,
        "meta_classification_type": "U",
        "meta_norad_cat_id": 50621,
        "meta_element_set_no": 999,
        "meta_rev_at_epoch": 22243,
        "meta_bstar": 0.00051202562,
        "meta_mean_motion_dot": 0.00037272,
        "meta_mean_motion_ddot": 0,
        "tle_line1": "1 50621U 82092ALR 25346.29249088  .00037272  00000+0  51203-3 0  9991",
        "tle_line2": "2 50621  82.5710  74.6463 0028840 154.2231 206.0469 15.56625201222432"
      },
      "geometry": {
        "type": "Point",
        "coordinates": [
          -111.10693770598998,
          32.97413936796805
        ]
      }
    }
  ]
}